#dP2023 12 28  0  0  0.00000000      96 __u+U IGS20 EXT  IAC
## 2294 345600.00000000   900.00000000 60306 0.0000000000000
+  119   C06C07C08C09C10C11C12C13C14C16C19C20C21C22C23C24C25
+        C26C27C28C29C30C32C33C34C35C36C37C38C39C41C42C43C44
+        C45C46E02E03E04E05E07E08E09E10E11E12E13E14E15E18E19
+        E21E24E25E26E27E30E31E33E34E36G01G02G03G04G05G06G07
+        G08G09G10G11G12G13G14G15G16G17G18G19G20G21G22G23G24
+        G25G26G27G28G29G30G31G32J02J03J04R01R02R03R04R05R07
+        R08R09R11R12R13R14R15R16R17R18R19R20R21R22R24R25R26
++        11  8 10  9  8  8  8 11 10 11  8  8  7  8  9  8  7
++         8  7  8  9  7  7  8  9  9  8  7  9 10  7  7  8  7
++         8  9  8  7  7  7  8  8  7  7  7  7  7  7  7  7  8
++         6  7  7  7  7  7  7  8  8  7  7  7  7  7  7  7  8
++         7  7  7  7  7  7  6  7  7  8  6  7  8  6  6  7  7
++         6  7  7  7  6  6  7  6  9  9  9  8  8  9  9 10  7
++         7  9  7  7  8  8  8  8  7  8  7  8  8  8  7 11  6
%c M  cc GPS ccc cccc cccc cccc cccc ccccc ccccc ccccc ccccc
%c cc cc ccc ccc cccc cccc cccc cccc ccccc ccccc ccccc ccccc
%f  0.0000000  0.000000000  0.00000000000  0.000000000000000
%f  0.0000000  0.000000000  0.00000000000  0.000000000000000
%i    0    0    0    0      0      0      0      0         0
%i    0    0    0    0      0      0      0      0         0
/* IAC                                ULTRA-RAPID PREDICTION
/* S/V CLOCKS ARE ALIGNED TO GNSS TIME                      
/* G:C1WC2W R:C1PC2P E:C1XC5X C:C2IC6I J:C1CC2S             
/* PCV:IGS20_2290 OL/AL:FES2004  NONE     YN ORB:CoN CLK:CoN
*  2023 12 28 12 45  0.00000000
PC06  -2506.964194  34120.760869 -24420.353542    231.783545
PC07 -11181.232785  27176.085559  30278.382423   -546.618316
PC08 -15781.819058  37758.469244 -10605.254790    151.226945
PC09   5588.396731  38508.127672 -14996.153100   -277.112280
PC10  -3222.281558  27750.536427  31853.883687    -70.802931
PC11  15583.128904  -5148.852176 -22495.460638    329.290279
PC12  22247.244206  12381.700285 -11379.363934    812.657465
PC13 -10980.441217  37988.231722 -14870.050701    401.076526
PC14  25064.643342 -10846.616416   5878.296048   -154.015425
PC16  -2704.908951  33372.590774 -25197.474871   -250.344834
PC19 -18765.894970  14943.077370 -14222.475086   -945.599764
PC20 -27184.760467   5999.385903   1751.253485    -12.404432
PC21  19867.527867   7433.635247 -18129.082064   -965.822822
PC22    964.148762  15822.398712 -22969.677700   -169.306883
PC23   1951.215078 -26917.411115  -7085.746202   -797.411672
PC24  17270.030778  -4620.644165  21398.775646    735.729967
PC25  12659.959921 -22957.560419   9514.058346    288.551873
PC26  11614.618745  14865.629796  20553.303081   -226.630864
PC27 -20940.730487 -18169.848553   3216.633301    248.639962
PC28 -10288.898202 -22818.640274 -12328.531820    188.344889
PC29  -8351.147393  13983.376758  22658.658862    220.567698
PC30 -21452.160922  -3314.379126  17546.422781    -11.892647
PC32 -19815.701710  -7379.641034  18219.983877   -547.275341
PC33  18762.261517 -15064.470542  14146.786798   -941.890405
PC34  20855.356413   1847.445939 -18446.258188    334.759308
PC35  11086.431736  22434.581762  12303.737696    470.394838
PC36 -13527.207611  22203.697430 -10144.131407    -74.933858
PC37 -10989.224070 -15619.822755 -20335.288725   -931.417732
PC38 -19508.168662  37412.092904  -1865.522356    126.911647
PC39  -6321.477064  29308.355512 -29499.804485     -6.349991
PC41   -109.385437 -16059.748601  22873.770824   -875.825044
PC42  27258.631759  -5072.469735  -3225.235921   -473.831406
PC43   9248.169215 -13388.135981 -22677.740091     54.123171
PC44  21572.168711  17411.486564  -3056.585734    336.556300
PC45  -1764.965146  26838.001766   7484.146043    -58.656185
PC46 -17269.161989   5846.395383 -21150.884074   -111.095353
PE02 -24216.742790  16032.683276  -5787.467439     90.351091
PE03 -22899.324487   5659.906261 -17886.049734    -83.173533
PE04   3933.107046 -16547.205832  24228.087779   -290.473893
PE05 -28357.330517  -8408.033574  -1209.798376   4704.850834
PE07  16885.784293  17761.567391 -16603.182992    -95.414086
PE08  -4581.382495  16201.520458 -24350.184840   -199.171736
PE09 -16799.870228 -17680.842863  16763.800132   -279.125743
PE10  -4342.939346 -29147.210183  -2755.223541   -589.796757
PE11 -10618.567965 -26533.195252   7731.416094   3277.349246
PE12   2036.949806 -27155.324801 -11617.520279   -838.248306
PE13  10244.895798  26854.748965  -7050.037462    -19.772599
PE14   -736.999513  17057.471715  19187.510688     -5.568641
PE15  -2341.984989  26898.293943  12139.160277    -77.112826
PE18  12821.795141 -15876.602436 -23141.606299    146.091863
PE19  24392.003681  -3783.538705  16334.435953   -925.324181
PE21  21420.592033   -191.243924  20418.660623   -571.068475
PE24  -5648.263781 -16865.355259 -23675.280605   -510.727397
PE25 -21238.891832   -156.684571 -20621.809775     -1.325005
PE26  16827.629217  10376.652789 -22017.653367    322.779800
PE27   6057.042850  16538.845177  23788.879948   -235.284941
PE30 -13006.215429  23294.915569  12827.088277   -778.448148
PE31  12677.593507 -23312.451706 -13102.393499    -12.597968
PE33  13588.781737 -10566.932253 -24068.319440      4.989520
PE34 -13344.315832  11230.257074  23921.197543    -85.844578
PE36 -16647.823092 -11111.732339  21819.765802   -163.948874
PG01 -13713.942919   4712.786525  21890.033779    164.756762
PG02 -16173.030471  -2308.236264  21490.828715   -509.155190
PG03 -21898.365504   9379.301626  11479.888597     86.780362
PG04 -23640.980471    461.487571 -12218.472919    251.362618
PG05  18025.204419   1143.964501 -19682.954411   -155.824706
PG06   6373.122204  25658.734441  -1797.877044    463.774809
PG07  -7163.572014  19711.347485 -15527.385001    -23.229056
PG08 -26074.723945  -4697.629811   3862.110617   -159.259408
PG09 -14944.743419   9989.039260 -19659.684440     40.825942
PG10   5500.781379 -19950.680852  16654.065369    -67.075081
PG11  11875.932611  20412.131564 -12179.515404   -518.437596
PG12  22585.141051  -7775.630608  11256.148893   -462.093047
PG13  22433.960110  13933.933428  -3981.939251    610.230093
PG14  -9268.506935  20774.801634  13581.855562    283.244772
PG15  26355.619753   2119.038901   3027.415715    111.472924
PG16 -13863.126080  -8254.606920 -21495.199248   -395.477361
PG17   -934.773755  15662.942618  21844.343197    721.144141
PG18   6351.017700 -20839.034528 -15049.164624   -517.947364
PG19   9379.011101  17422.305329  17697.363405    418.699376
PG20   9067.502157  13007.714418 -21272.250304    394.382483
PG21 -16869.690598  -7507.087946  19918.592648    140.189787
PG22  -2966.592624  18818.110358  19062.523079     58.097351
PG23  15708.155880 -20479.095158   5854.722632    124.440049
PG24  16628.262494   3149.401680  20151.109803   -402.691092
PG25  19887.826611 -17303.876139   1248.728959    483.200386
PG26  -6399.056974 -15513.171902 -20656.996249    205.430879
PG27 -21667.843058 -13234.965358  -8771.736904    -88.334850
PG28  -5641.241348 -25929.242598   1151.274551    -82.335169
PG29  16456.433997  -7587.302485 -19498.835398   -609.365906
PG30     15.055391  25429.623927  -7053.912631   -452.223344
PG31 -10156.742185 -23042.001586  -7966.040501   -226.936120
PG32  -4173.120430 -16436.655856  20680.857335   -600.435210
PJ02 -30532.918348  28980.308264   7483.218655     -0.810530
PJ03 -24214.587432  26021.975480  27782.076921    -13.902743
PJ04 -32227.701904  22661.571283  -9821.980649     75.286796
PR01   1396.317264 -11110.353283  22919.306412     73.214618
PR02 -16817.244943  -7191.447188  17858.175238    -22.348232
PR03 -25411.007085    809.062768   2508.959634     91.787812
PR04 -19907.127131   7829.796056 -13883.131732    217.264877
PR05  -3756.254291  10821.362713 -22784.516055    124.537920
PR07  25400.945517  -1251.636364  -1501.549232     72.347431
PR08  19605.132184  -8171.022937  14154.064846    -73.855043
PR09   5721.185913  13051.608551  21150.664977    161.251756
PR11  14055.156881 -18468.973538  10606.154571   -223.961702
PR12   6302.108832 -23152.648518  -8611.496784     34.978839
PR13  -3876.076782 -15012.094250 -20273.107140    -42.715257
PR14 -13350.655383   4217.071288 -21313.032987     25.858884
PR15 -13967.823551  19236.756721  -9232.428199     83.591364
PR16  -6372.115564  23217.323160   8384.383010     21.975806
PR17 -15563.553962  -7766.155712  18656.730668     47.419321
PR18  -7444.717959   7690.134931  23173.434114    119.191259
PR19   2787.876940  18843.493102  16974.268178   -259.948137
PR20  14306.150622  20926.038798  -2632.228858   -105.884106
PR21  15330.279988   7538.608205 -18944.889595    -64.476028
PR22   7297.068024  -8680.157288 -22818.018313    100.452802
PR24 -15389.348882 -20075.567206   3255.706721    -37.685892
PR25  15432.774819   8283.156054 -18542.136418      7.199254
PR26  20150.214784  -8016.577623  13464.251646    -21.794411
EOF
